{
    "links": {
        "self": "http://www.neowsapp.com/rest/v1/neo/3648843?api_key=iIulBulltgU6a56xZRHN4H3l9WmuAYTsLGpBGhQ2"
    },
    "id": "3648843",
    "neo_reference_id": "3648843",
    "name": "(2013 TQ4)",
    "designation": "2013 TQ4",
    "nasa_jpl_url": "http://ssd.jpl.nasa.gov/sbdb.cgi?sstr=3648843",
    "absolute_magnitude_h": 27.4,
    "estimated_diameter": {
        "kilometers": {
            "estimated_diameter_min": 0.0088014652,
            "estimated_diameter_max": 0.0196806745
        },
        "meters": {
            "estimated_diameter_min": 8.801465209,
            "estimated_diameter_max": 19.6806745089
        },
        "miles": {
            "estimated_diameter_min": 0.0054689752,
            "estimated_diameter_max": 0.0122290004
        },
        "feet": {
            "estimated_diameter_min": 28.8761991163,
            "estimated_diameter_max": 64.5691441559
        }
    },
    "is_potentially_hazardous_asteroid": false,
    "close_approach_data": [
        {
            "close_approach_date": "1976-11-10",
            "close_approach_date_full": "1976-Nov-10 15:17",
            "epoch_date_close_approach": 216487020000,
            "relative_velocity": {
                "kilometers_per_second": "14.1328123149",
                "kilometers_per_hour": "50878.124333762",
                "miles_per_hour": "31613.6878672756"
            },
            "miss_distance": {
                "astronomical": "0.2521949741",
                "lunar": "98.1038449249",
                "kilometers": "37727830.950065167",
                "miles": "23442987.0866146246"
            },
            "orbiting_body": "Earth"
        },
        {
            "close_approach_date": "2013-10-02",
            "close_approach_date_full": "2013-Oct-02 12:30",
            "epoch_date_close_approach": 1380717000000,
            "relative_velocity": {
                "kilometers_per_second": "6.274391418",
                "kilometers_per_hour": "22587.8091048143",
                "miles_per_hour": "14035.1861629331"
            },
            "miss_distance": {
                "astronomical": "0.0127201102",
                "lunar": "4.9481228678",
                "kilometers": "1902901.392085274",
                "miles": "1182408.0960498212"
            },
            "orbiting_body": "Earth"
        },
        {
            "close_approach_date": "2021-08-05",
            "close_approach_date_full": "2021-Aug-05 05:43",
            "epoch_date_close_approach": 1628142180000,
            "relative_velocity": {
                "kilometers_per_second": "16.4644481576",
                "kilometers_per_hour": "59272.0133673899",
                "miles_per_hour": "36829.324083754"
            },
            "miss_distance": {
                "astronomical": "0.3291322332",
                "lunar": "128.0324387148",
                "kilometers": "49237481.035063284",
                "miles": "30594752.0176859592"
            },
            "orbiting_body": "Earth"
        }
    ],
    "orbital_data": {
        "orbit_id": "5",
        "orbit_determination_date": "2019-07-11 06:01:26",
        "first_observation_date": "2013-10-03",
        "last_observation_date": "2013-10-05",
        "data_arc_in_days": 2,
        "observations_used": 42,
        "orbit_uncertainty": "7",
        "minimum_orbit_intersection": ".0123324",
        "jupiter_tisserand_invariant": "3.791",
        "epoch_osculation": "2459000.5",
        "eccentricity": ".4702922307177897",
        "semi_major_axis": "1.912328816720922",
        "inclination": "1.253642566079171",
        "ascending_node_longitude": "195.2355764704706",
        "orbital_period": "965.9224965837325",
        "perihelion_distance": "1.012975431639329",
        "perihelion_argument": "171.2367474029334",
        "aphelion_distance": "2.811682201802516",
        "perihelion_time": "2459463.847519128793",
        "mean_anomaly": "187.3100507791044",
        "mean_motion": ".372700709708331",
        "equinox": "J2000",
        "orbit_class": {
            "orbit_class_type": "APO",
            "orbit_class_description": "Near-Earth asteroid orbits which cross the Earth’s orbit similar to that of 1862 Apollo",
            "orbit_class_range": "a (semi-major axis) > 1.0 AU; q (perihelion) < 1.017 AU"
        }
    },
    "is_sentry_object": false
}